{
  "norad_id": 64688,
  "name": "STARLINK-34262",
  "history": [
    {
      "epoch": "2026-03-28T21:15:52.312896Z",
      "apogee_km": 476.44056673121486,
      "perigee_km": 473.8864786924114,
      "latitude_deg": 1.1397170051703673e-05,
      "longitude_deg": -107.43370110145536,
      "height_km": 476.5683312781322,
      "semi_major_axis_km": 6853.300522711813,
      "eccentricity": 0.00018634,
      "inclination_deg": 53.1619,
      "raan_deg": 37.8343,
      "arg_perigee_deg": 113.3988,
      "mean_anomaly_deg": 246.7209,
      "mean_motion_rev_day": 15.30217264
    },
    {
      "epoch": "2026-03-29T03:32:05.279712Z",
      "apogee_km": 475.9539168263,
      "perigee_km": 474.4091788256201,
      "latitude_deg": 1.2254954539738567e-05,
      "longitude_deg": 157.0386603890654,
      "height_km": 476.0962608334965,
      "semi_major_axis_km": 6853.318547825959,
      "eccentricity": 0.0001127,
      "inclination_deg": 53.1602,
      "raan_deg": 36.6182,
      "arg_perigee_deg": 91.2181,
      "mean_anomaly_deg": 268.8949,
      "mean_motion_rev_day": 15.30211227
    },
    {
      "epoch": "2026-03-30T03:02:53.132640Z",
      "apogee_km": 475.86311833328,
      "perigee_km": 474.5520735120808,
      "latitude_deg": -2.9033776970472682e-05,
      "longitude_deg": 158.82278639805514,
      "height_km": 475.98355567321096,
      "semi_major_axis_km": 6853.34459592268,
      "eccentricity": 9.565e-05,
      "inclination_deg": 53.1597,
      "raan_deg": 32.0674,
      "arg_perigee_deg": 79.2264,
      "mean_anomaly_deg": 280.8844,
      "mean_motion_rev_day": 15.30202503
    },
    {
      "epoch": "2026-03-30T20:17:28.487040Z",
      "apogee_km": 475.58591391643404,
      "perigee_km": 474.6171401182546,
      "latitude_deg": -3.4753363634201036e-05,
      "longitude_deg": -103.86977820421343,
      "height_km": 475.7445284493651,
      "semi_major_axis_km": 6853.238527017344,
      "eccentricity": 7.068e-05,
      "inclination_deg": 53.1602,
      "raan_deg": 28.7303,
      "arg_perigee_deg": 58.0946,
      "mean_anomaly_deg": 302.0123,
      "mean_motion_rev_day": 15.30238028
    },
    {
      "epoch": "2026-03-31T19:48:16.838496Z",
      "apogee_km": 475.9476413034472,
      "perigee_km": 474.4179803216739,
      "latitude_deg": -1.2207288721518773e-05,
      "longitude_deg": -102.0871867655286,
      "height_km": 476.33990006882937,
      "semi_major_axis_km": 6853.31981081256,
      "eccentricity": 0.0001116,
      "inclination_deg": 53.1607,
      "raan_deg": 24.18,
      "arg_perigee_deg": 109.7652,
      "mean_anomaly_deg": 250.3469,
      "mean_motion_rev_day": 15.30210804
    },
    {
      "epoch": "2026-04-01T05:12:35.858016Z",
      "apogee_km": 475.9622810905021,
      "perigee_km": 474.4065771260939,
      "latitude_deg": -7.344490698215925e-05,
      "longitude_deg": 114.62775886986347,
      "height_km": 476.1751207238907,
      "semi_major_axis_km": 6853.321429108298,
      "eccentricity": 0.0001135,
      "inclination_deg": 53.1615,
      "raan_deg": 22.3605,
      "arg_perigee_deg": 96.8109,
      "mean_anomaly_deg": 263.302,
      "mean_motion_rev_day": 15.30210262
    },
    {
      "epoch": "2026-04-02T12:33:39.681216Z",
      "apogee_km": 476.4204038690723,
      "perigee_km": 473.95032942168655,
      "latitude_deg": -3.2168919351001964e-05,
      "longitude_deg": -2.9960814151118416,
      "height_km": 476.42176836981776,
      "semi_major_axis_km": 6853.32236664538,
      "eccentricity": 0.00018021,
      "inclination_deg": 53.1605,
      "raan_deg": 16.2901,
      "arg_perigee_deg": 105.9275,
      "mean_anomaly_deg": 254.1924,
      "mean_motion_rev_day": 15.30209948
    },
    {
      "epoch": "2026-04-03T18:20:40.849152Z",
      "apogee_km": 476.1299956953162,
      "perigee_km": 474.52765538530457,
      "latitude_deg": -3.912450891337957e-05,
      "longitude_deg": -96.7347240811705,
      "height_km": 476.00744868790207,
      "semi_major_axis_km": 6853.46582554031,
      "eccentricity": 0.0001169,
      "inclination_deg": 53.1618,
      "raan_deg": 10.5295,
      "arg_perigee_deg": 74.0739,
      "mean_anomaly_deg": 286.039,
      "mean_motion_rev_day": 15.30161902
    },
    {
      "epoch": "2026-04-04T11:35:15.706752Z",
      "apogee_km": 476.3112962135574,
      "perigee_km": 473.98378371809395,
      "latitude_deg": -5.4575861518274355e-05,
      "longitude_deg": 0.5741784242933189,
      "height_km": 475.76872276964264,
      "semi_major_axis_km": 6853.284539965825,
      "eccentricity": 0.00016981,
      "inclination_deg": 53.1601,
      "raan_deg": 7.1918,
      "arg_perigee_deg": 76.2608,
      "mean_anomaly_deg": 283.8581,
      "mean_motion_rev_day": 15.30222617
    },
    {
      "epoch": "2026-04-05T11:06:05.031072Z",
      "apogee_km": 476.02279292580806,
      "perigee_km": 474.60769210677336,
      "latitude_deg": 7.579974210859623e-06,
      "longitude_deg": 2.3542320180619347,
      "height_km": 476.1834555571332,
      "semi_major_axis_km": 6853.45224251629,
      "eccentricity": 0.00010324,
      "inclination_deg": 53.1609,
      "raan_deg": 2.643,
      "arg_perigee_deg": 87.5482,
      "mean_anomaly_deg": 272.5637,
      "mean_motion_rev_day": 15.30166451
    },
    {
      "epoch": "2026-04-05T22:04:27.667488Z",
      "apogee_km": 475.96434184774444,
      "perigee_km": 474.45879823387895,
      "latitude_deg": -3.873988022863567e-05,
      "longitude_deg": -164.81606494113734,
      "height_km": 476.2111026404059,
      "semi_major_axis_km": 6853.348570040812,
      "eccentricity": 0.00010984,
      "inclination_deg": 53.1606,
      "raan_deg": 0.5177,
      "arg_perigee_deg": 97.7216,
      "mean_anomaly_deg": 262.3909,
      "mean_motion_rev_day": 15.30201172
    },
    {
      "epoch": "2026-04-07T10:07:39.482400Z",
      "apogee_km": 475.98384989793067,
      "perigee_km": 474.3339874384701,
      "latitude_deg": 3.0002074920909603e-05,
      "longitude_deg": 5.9277979360675515,
      "height_km": 476.04044238289015,
      "semi_major_axis_km": 6853.2959186682,
      "eccentricity": 0.00012037,
      "inclination_deg": 53.1598,
      "raan_deg": 353.5414,
      "arg_perigee_deg": 88.8453,
      "mean_anomaly_deg": 271.2686,
      "mean_motion_rev_day": 15.30218806
    },
    {
      "epoch": "2026-04-08T09:38:27.398400Z",
      "apogee_km": 476.02763361785037,
      "perigee_km": 474.37584191527367,
      "latitude_deg": 3.184367576207952e-05,
      "longitude_deg": 7.710789045173642,
      "height_km": 476.1450823171516,
      "semi_major_axis_km": 6853.338737766562,
      "eccentricity": 0.00012051,
      "inclination_deg": 53.1588,
      "raan_deg": 348.9897,
      "arg_perigee_deg": 93.145,
      "mean_anomaly_deg": 266.9689,
      "mean_motion_rev_day": 15.30204465
    }
  ]
}